OBJECT_NAME,OBJECT_ID,EPOCH,MEAN_MOTION,ECCENTRICITY,INCLINATION,RA_OF_ASC_NODE,ARG_OF_PERICENTER,MEAN_ANOMALY,EPHEMERIS_TYPE,CLASSIFICATION_TYPE,NORAD_CAT_ID,ELEMENT_SET_NO,REV_AT_EPOCH,BSTAR,MEAN_MOTION_DOT,MEAN_MOTION_DDOT
SL-14 R/B,1990-010B,2026-07-09T08:33:24.368256,14.83660783,.0018196,82.5031,153.1250,258.0804,101.8371,0,U,20466,999,94652,.29916E-4,.271E-5,0
SL-14 R/B,1990-018B,2026-07-09T05:18:55.427904,14.82231639,.00174122,82.5223,109.5139,55.2414,305.0437,0,U,20511,999,94058,.32342137E-4,.282E-5,0
HST,1990-037B,2026-07-08T17:18:38.370816,15.31013397,.0001994,28.4736,293.3726,41.8079,318.2669,0,U,20580,999,79187,.15028511E-3,.4866E-4,0
SL-16 R/B,1990-046B,2026-07-09T00:05:31.331040,14.15022786,.0012487,70.9983,43.1285,125.2782,234.9511,0,U,20625,999,86555,-.1418481E-5,-.5E-6,0
COSMOS 2084,1990-055A,2026-07-09T05:40:24.314592,15.06210349,.00073697,62.7905,280.8289,312.2608,47.7867,0,U,20663,999,95462,.95316365E-4,.1201E-4,0
SL-6 R/B(2),1990-055D,2026-07-09T17:18:10.264032,15.04073794,.0044265,62.7799,198.6917,8.2561,351.9257,0,U,20666,999,95654,.97249E-4,.1171E-4,0
SL-8 R/B,1990-078B,2026-07-08T21:52:07.419936,14.93408823,.03445479,82.9023,141.9992,324.9410,32.9553,0,U,20775,999,82736,.46254958E-3,.16326E-3,0
SL-8 R/B,1991-006B,2026-07-09T03:55:09.140736,13.77508388,.0023696,82.9417,79.6847,56.5740,97.0694,0,U,21088,999,78079,.41523033E-4,.57E-6,0
OKEAN-3,1991-039A,2026-07-09T14:32:07.316736,15.05416567,.001201,82.5137,218.6398,275.7545,84.2313,0,U,21397,999,88337,.94687E-4,.1388E-4,0
COSMOS 2151,1991-042A,2026-07-09T19:12:14.097888,15.00504298,.0012498,82.4977,325.8569,13.7135,346.4426,0,U,21422,999,88150,.9407E-4,.1214E-4,0
SL-14 R/B,1991-042B,2026-07-09T16:55:41.445120,14.81916187,.001649,82.4936,105.7799,195.1082,164.9642,0,U,21423,999,87114,.25192E-4,.223E-5,0
ERS-1,1991-050A,2026-07-09T16:26:40.890336,14.39530485,.0031553,98.7794,211.9326,198.2061,161.7999,0,U,21574,999,83328,.63975E-4,.154E-5,0
ARIANE 40 R/B,1991-050F,2026-07-08T18:04:34.932576,14.42969614,.000437,98.1864,237.3288,75.3560,284.8115,0,U,21610,999,83645,.67634777E-4,.185E-5,0
INTERCOSMOS 25,1991-086A,2026-07-09T03:35:57.704352,12.12233409,.14842768,82.6018,236.5193,214.9742,134.4497,0,U,21819,999,51140,.22158777E-3,.1125E-4,0
SL-8 R/B,1992-008B,2026-07-09T16:34:31.251072,13.75982559,.0035359,82.9267,177.0557,151.6373,21.7909,0,U,21876,999,72619,.11467E-3,.127E-5,0
SL-8 R/B,1992-020B,2026-07-09T02:42:11.421216,13.75550322,.00282313,82.9291,63.5702,321.2174,191.9018,0,U,21938,999,71782,.7612055E-5,.22E-6,0
USA 81,1992-023A,2026-07-09T13:24:53.107200,14.32403925,.0002229,85.0056,61.0934,66.9776,293.1651,0,U,21949,999,11223,.31649E-4,.106E-5,0
COSMOS 2219,1992-076A,2026-07-09T06:15:18.546912,14.14110057,.00178747,71.0616,123.9288,6.9103,353.2263,0,U,22219,999,73556,-.20471525E-4,-.86E-6,0
SL-16 R/B,1992-076B,2026-07-09T13:21:14.014080,14.16874871,.0014986,71.0008,291.6595,269.2830,179.5704,0,U,22220,999,73909,.11353E-3,.18E-5,0
COSMOS 2221,1992-080A,2026-07-09T16:06:48.631680,14.96593877,.001538,82.5041,162.2222,137.2141,223.0281,0,U,22236,999,79903,.96602E-4,.1129E-4,0
SL-16 R/B,1992-093B,2026-07-09T05:17:42.982368,14.15467051,.00026089,71.0224,109.1374,148.1428,211.9853,0,U,22285,999,73035,.2641667E-5,-.42E-6,0
COSMOS 2228,1992-094A,2026-07-09T17:42:14.014944,14.97665025,.0016054,82.5190,120.4432,249.2666,110.6836,0,U,22286,999,79432,.10286E-3,.1233E-4,0
SL-16 R/B,1993-016B,2026-07-09T15:03:00.065376,14.15311517,.0009031,71.0084,319.0751,148.0676,212.0995,0,U,22566,999,71942,-.25504E-4,-.97E-6,0
COSMOS 2242,1993-024A,2026-07-09T15:22:29.466912,14.96973984,.001439,82.5195,150.0606,253.2769,106.6874,0,U,22626,999,79863,.10622E-3,.1249E-4,0
SL-16 R/B,1993-059B,2026-07-08T22:42:41.583168,14.17251142,.00163178,70.9907,115.4183,18.1304,342.0398,0,U,22803,999,69671,-.51681369E-4,-.153E-5,0
ARIANE 40 R/B,1993-061H,2026-07-09T04:49:44.292576,14.32917022,.00094718,98.4808,256.5999,285.7966,74.2173,0,U,22830,999,71150,.56034893E-4,.11E-5,0
COSMOS 2278,1994-023A,2026-07-09T05:48:01.505376,14.14394142,.00099302,71.0534,280.7825,214.6545,145.3931,0,U,23087,999,66199,-.83819151E-4,-.208E-5,0
SL-16 R/B,1994-023B,2026-07-08T22:49:12.363456,14.15024143,.00015458,70.9977,176.2254,150.3353,209.7858,0,U,23088,999,66324,-.54380351E-4,-.153E-5,0
SL-16 R/B,1994-074B,2026-07-09T02:59:05.205984,14.79520997,.0006665,97.6985,215.9305,172.8784,231.6966,0,U,23343,999,70520,.43425618E-4,.276E-5,0
SL-16 R/B,1994-077B,2026-07-09T17:35:39.681888,14.15575812,.0004058,70.9829,95.7312,307.6531,52.4223,0,U,23405,999,63350,-.12372E-3,-.29E-5,0
